STARLINK-30265          
1 57646U 23122Q   26068.11230251  .00000978  00000+0  46145-4 0  9992
2 57646  43.0004  95.3336 0001225 290.4065  69.6655 15.26741509142123
NESS                    
1 58020U 23155E   26068.76452457  .00019469  00000+0  74047-3 0  9996
2 58020  97.5941 152.6141 0006891 179.8776 180.2465 15.26794015133307
